     3.03           N: GNSS NAV DATA    M: MIXED            RINEX VERSION / TYPE
GR30 V4.20          ASI-egeos           20210723 235942 UTC PGM / RUN BY / DATE
GAL    7.8000D+01  2.4219D-01  5.3101D-03                   IONOSPHERIC CORR
GPSA   7.4506D-09  1.4901D-08 -5.9605D-08 -1.1921D-07       IONOSPHERIC CORR
GPSB   9.2160D+04  1.3107D+05 -6.5536D+04 -5.2429D+05       IONOSPHERIC CORR
BDSA   9.3132D-09  8.9407D-08 -6.5565D-07  9.5367D-07 W 05  IONOSPHERIC CORR
BDSA   8.3819D-09  8.9407D-08 -6.5565D-07  9.5367D-07 O 06  IONOSPHERIC CORR
BDSA   9.3132D-09  8.9407D-08 -6.5565D-07  9.5367D-07 W 07  IONOSPHERIC CORR
BDSA   8.3819D-09  8.9407D-08 -6.5565D-07  9.5367D-07 G 08  IONOSPHERIC CORR
BDSA   8.3819D-09  8.9407D-08 -6.5565D-07  9.5367D-07 S 09  IONOSPHERIC CORR
BDSA   9.3132D-09  8.9407D-08 -6.5565D-07  9.5367D-07 W 10  IONOSPHERIC CORR
BDSA   8.3819D-09  8.9407D-08 -6.5565D-07  9.5367D-07 P 11  IONOSPHERIC CORR
BDSA   8.3819D-09  1.0431D-07 -7.1526D-07  1.0133D-06 Q 12  IONOSPHERIC CORR
BDSA   8.3819D-09  8.9407D-08 -6.5565D-07  9.5367D-07 K 13  IONOSPHERIC CORR
BDSA   9.3132D-09  8.9407D-08 -6.5565D-07  9.5367D-07 W 14  IONOSPHERIC CORR
BDSA   8.3819D-09  8.9407D-08 -6.5565D-07  9.5367D-07 O 16  IONOSPHERIC CORR
BDSA   9.3132D-09  8.9407D-08 -6.5565D-07  9.5367D-07 Q 19  IONOSPHERIC CORR
BDSA   8.3819D-09  8.9407D-08 -6.5565D-07  9.5367D-07 O 20  IONOSPHERIC CORR
BDSA   8.3819D-09  8.9407D-08 -6.5565D-07  9.5367D-07 U 21  IONOSPHERIC CORR
BDSA   8.3819D-09  8.9407D-08 -6.5565D-07  9.5367D-07 S 22  IONOSPHERIC CORR
BDSA   9.3132D-09  8.9407D-08 -6.5565D-07  9.5367D-07 X 23  IONOSPHERIC CORR
BDSA   9.3132D-09  8.9407D-08 -6.5565D-07  9.5367D-07 W 24  IONOSPHERIC CORR
BDSA   9.3132D-09  8.9407D-08 -6.5565D-07  9.5367D-07 W 25  IONOSPHERIC CORR
BDSA   9.3132D-09  8.9407D-08 -6.5565D-07  9.5367D-07 W 26  IONOSPHERIC CORR
BDSA   8.3819D-09  8.9407D-08 -6.5565D-07  9.5367D-07 I 27  IONOSPHERIC CORR
BDSA   8.3819D-09  8.9407D-08 -6.5565D-07  9.5367D-07 S 28  IONOSPHERIC CORR
BDSA   8.3819D-09  8.9407D-08 -6.5565D-07  9.5367D-07 O 29  IONOSPHERIC CORR
BDSA   8.3819D-09  8.9407D-08 -6.5565D-07  9.5367D-07 M 30  IONOSPHERIC CORR
BDSB   1.3312D+05 -2.1299D+05  1.4418D+06 -9.8304D+05 W 05  IONOSPHERIC CORR
BDSB   1.3722D+05 -2.9491D+05  1.8350D+06 -1.1796D+06 O 06  IONOSPHERIC CORR
BDSB   1.3312D+05 -2.1299D+05  1.4418D+06 -9.8304D+05 W 07  IONOSPHERIC CORR
BDSB   1.4336D+05 -4.0960D+05  2.2938D+06 -1.4418D+06 G 08  IONOSPHERIC CORR
BDSB   1.3312D+05 -2.7853D+05  1.9005D+06 -1.2452D+06 S 09  IONOSPHERIC CORR
BDSB   1.3312D+05 -2.1299D+05  1.4418D+06 -9.8304D+05 W 10  IONOSPHERIC CORR
BDSB   1.4336D+05 -4.0960D+05  2.2938D+06 -1.4418D+06 P 11  IONOSPHERIC CORR
BDSB   1.4541D+05 -4.7514D+05  2.5559D+06 -1.5729D+06 Q 12  IONOSPHERIC CORR
BDSB   1.4336D+05 -3.6045D+05  2.1627D+06 -1.3763D+06 K 13  IONOSPHERIC CORR
BDSB   1.3312D+05 -2.1299D+05  1.4418D+06 -9.8304D+05 W 14  IONOSPHERIC CORR
BDSB   1.3722D+05 -2.9491D+05  1.8350D+06 -1.1796D+06 O 16  IONOSPHERIC CORR
BDSB   1.3312D+05 -2.9491D+05  1.9005D+06 -1.2452D+06 Q 19  IONOSPHERIC CORR
BDSB   1.3722D+05 -2.9491D+05  1.8350D+06 -1.1796D+06 O 20  IONOSPHERIC CORR
BDSB   1.3312D+05 -2.2938D+05  1.5729D+06 -1.0486D+06 U 21  IONOSPHERIC CORR
BDSB   1.3312D+05 -2.7853D+05  1.9005D+06 -1.2452D+06 S 22  IONOSPHERIC CORR
BDSB   1.3312D+05 -2.1299D+05  1.4418D+06 -9.8304D+05 X 23  IONOSPHERIC CORR
BDSB   1.3312D+05 -2.1299D+05  1.4418D+06 -9.8304D+05 W 24  IONOSPHERIC CORR
BDSB   1.3312D+05 -2.1299D+05  1.4418D+06 -9.8304D+05 W 25  IONOSPHERIC CORR
BDSB   1.3312D+05 -2.1299D+05  1.4418D+06 -9.8304D+05 W 26  IONOSPHERIC CORR
BDSB   1.4336D+05 -3.7683D+05  2.1627D+06 -1.3763D+06 I 27  IONOSPHERIC CORR
BDSB   1.3312D+05 -2.7853D+05  1.9005D+06 -1.2452D+06 S 28  IONOSPHERIC CORR
BDSB   1.3722D+05 -2.9491D+05  1.8350D+06 -1.1796D+06 O 29  IONOSPHERIC CORR
BDSB   1.4131D+05 -3.2768D+05  1.9661D+06 -1.2452D+06 M 30  IONOSPHERIC CORR
GPUT  0.0000000000D+00-1.776356839D-15 147456 2168          TIME SYSTEM CORR
GLUT  6.0535967350D-09 0.000000000D+00      0    0          TIME SYSTEM CORR
GAUT  0.0000000000D+00 0.000000000D+00 432000 2167          TIME SYSTEM CORR
GPGA  1.5133991838D-09 4.440892099D-15 518400 2167          TIME SYSTEM CORR
BDUT  2.7939677238D-09 0.000000000D+00 518345  811          TIME SYSTEM CORR
    18    18  1929     7                                    LEAP SECONDS
                                                            END OF HEADER
C29 2021 07 23 14 00 00 4.234041552991D-04 5.074163311747D-12 0.000000000000D+00
     1.000000000000D+00 1.409218750000D+02 4.038025342821D-09 1.732177672427D+00
     6.919261068106D-06 3.415258834139D-04 6.901100277901D-07 5.282617343903D+03
     4.824000000000D+05-9.359791874886D-08 1.145959701273D+00-1.769512891769D-08
     9.651183443215D-01 3.494375000000D+02 1.669517571731D+00-7.187085085228D-09
     3.021554431299D-10                    8.110000000000D+02                   
     2.000000000000D+00 0.000000000000D+00-2.000000000000D-10-2.000000000000D-10
     4.824000000000D+05 1.000000000000D+00                                      
C30 2021 07 23 12 00 00 4.749941872433D-04 1.302957741700D-12 0.000000000000D+00
     1.000000000000D+00 1.343750000000D+02 4.014810090098D-09 2.549010428493D+00
     6.531830877066D-06 4.425538936630D-04 5.303882062435D-07 5.282614454269D+03
     4.752000000000D+05-1.052394509315D-07 1.146545741867D+00 9.778887033463D-09
     9.650592892445D-01 3.502031250000D+02 6.840919934174D-01-7.173513091328D-09
     2.171519023912D-10                    8.110000000000D+02                   
     2.000000000000D+00 0.000000000000D+00-9.800000000000D-09-9.800000000000D-09
     4.752000000000D+05 1.000000000000D+00                                      
J01 2018 07 21 22 00 00 5.132388323545D-04-7.958078640513D-13 0.000000000000D+00
     8.900000000000D+01-3.593750000000D+00 4.785913638228D-09-9.939278285122D-02
    -2.272427082062D-07 8.877401705831D-04 8.678063750267D-06 5.153579746246D+03
     5.976000000000D+05 3.352761268616D-08-1.551783550014D+00 2.421438694000D-08
     9.522723333936D-01 2.070000000000D+02 1.822599439314D+00-8.096408676491D-09
    -4.168030758068D-10 2.000000000000D+00 2.010000000000D+03 0.000000000000D+00
     2.000000000000D+00 0.000000000000D+00 9.313225746155D-10 8.900000000000D+01
     5.942400000000D+05 0.000000000000D+00
J02 2018 07 15 22 00 00 5.136360414326D-04-6.821210263297D-13 0.000000000000D+00
     1.040000000000D+02 4.700000000000D+01 5.016994692252D-09-3.240266495591D-01
     2.406537532806D-06 8.896761573851D-04 7.079914212227D-06 5.153579256058D+03
     7.920000000000D+04-4.656612873077D-08-1.547593373739D+00 4.284083843231D-08
     9.522111717145D-01 2.377812500000D+02 1.828354212326D+00-8.287845222020D-09
     3.596578383355D-10 2.000000000000D+00 2.010000000000D+03 0.000000000000D+00
     2.000000000000D+00 0.000000000000D+00 9.313225746155D-10 1.040000000000D+02
     7.782000000000D+04 0.000000000000D+00
J03 2018 07 07 22 00 00 5.140565335751D-04-5.684341886081D-13 0.000000000000D+00
     8.200000000000D+01-7.250000000000D+00 4.662337062196D-09-6.427065719942D-01
    -3.725290298462D-07 8.949368493631D-04 1.019798219204D-05 5.153590974808D+03
     5.976000000000D+05-4.470348358154D-08-1.301070971240D+00 4.284083843231D-08
     9.523160468487D-01 1.774375000000D+02 1.854730253714D+00-8.033548915273D-09
    -3.353711124101D-10 2.000000000000D+00 2.008000000000D+03 0.000000000000D+00
     2.000000000000D+00 0.000000000000D+00 9.313225746155D-10 8.200000000000D+01
     5.971200000000D+05 0.000000000000D+00
J04 2018 07 18 22 00 00 5.134441889822D-04-7.958078640513D-13 0.000000000000D+00
     9.600000000000D+01 3.046875000000D+01 4.657336853917D-09-2.108111794861D-01
     1.534819602966D-06 8.908044546843D-04 1.031160354614D-05 5.153585092545D+03
     3.384000000000D+05-4.656612873077D-08-1.549700961780D+00 1.490116119385D-08
     9.523071976573D-01 1.757500000000D+02 1.824592571570D+00-8.060692903071D-09
     9.286101089098D-12 2.000000000000D+00 2.010000000000D+03 0.000000000000D+00
     2.000000000000D+00 0.000000000000D+00 9.313225746155D-10 9.600000000000D+01
     3.354000000000D+05 0.000000000000D+00
J05 2018 06 22 00 00 00 5.145352333784D-04-1.136868377216D-13 0.000000000000D+00
     8.300000000000D+01 1.921875000000D+01 4.595191408167D-09-1.712444943920D-01
     9.406358003616D-07 8.942048298195D-04 1.051463186741D-05 5.153603025436D+03
     4.320000000000D+05-4.097819328308D-08-1.049082322673D+00 7.450580596924D-09
     9.524554453867D-01 1.720625000000D+02 1.850638544992D+00-7.998190299587D-09
    -2.089372745047D-10 2.000000000000D+00 2.006000000000D+03 0.000000000000D+00
     2.000000000000D+00 0.000000000000D+00 9.313225746155D-10 8.300000000000D+01
     4.284600000000D+05 0.000000000000D+00
G17 2021 07 24 02 00 00 4.784311167896D-04 5.798028723802D-12 0.000000000000D+00
     9.800000000000D+01 1.535312500000D+02 3.730512533678D-09-3.056220300597D+00
     8.076429367065D-06 1.338817144278D-02 5.563721060753D-06 5.153636360168D+03
     5.256000000000D+05 1.154839992523D-07 8.451658512244D-01 1.117587089539D-08
     9.817971377116D-01 2.836250000000D+02-1.561874532172D+00-7.555314709184D-09
     2.392956819114D-10 1.000000000000D+00 2.167000000000D+03 0.000000000000D+00
     4.000000000000D+00 0.000000000000D+00-1.117587089539D-08 9.800000000000D+01
     5.184000000000D+05                   
